ONEWEB-0399             
1 50479U 21132L   26047.03828915  .00000550  00000+0  15169-2 0  9992
2 50479  87.8831  45.1608 0002044  71.1133 289.0217 13.11421841199725
ONEWEB-0400             
1 50480U 21132M   26047.28926629  .00000082  00000+0  17468-3 0  9997
2 50480  87.9232 359.4438 0001999  84.8159 275.3201 13.18684112205674
ONEWEB-0401             
1 50481U 21132N   26047.25792115  .00000010  00000+0 -82129-5 0  9996
2 50481  87.9238 359.4453 0001672  80.0637 280.0683 13.18686161205678
ONEWEB-0402             
1 50482U 21132P   26047.22163443 -.00000080  00000+0 -23616-3 0  9992
2 50482  87.9236 359.4443 0001313  75.5640 284.5637 13.18684108205690
ONEWEB-0403             
1 50483U 21132Q   26047.24637325  .00000064  00000+0  13043-3 0  9993
2 50483  87.9236 359.4623 0001969  78.7403 281.3951 13.18684383205655
ONEWEB-0404             
1 50484U 21132R   26047.01963690 -.00000489  00000+0 -14162-2 0  9991
2 50484  87.8823  45.1735 0002113  79.0752 281.0614 13.11416886199810
ONEWEB-0405             
1 50485U 21132S   26047.26121410 -.00000061  00000+0 -18645-3 0  9992
2 50485  87.9240 359.4432 0001673  77.5812 282.5508 13.18684750206057
ONEWEB-0406             
1 50486U 21132T   26047.25133504  .00000012  00000+0 -26487-5 0  9999
2 50486  87.9235 359.4713 0002178  71.0831 289.0537 13.18686488205687
ONEWEB-0407             
1 50487U 21132U   26047.24472098  .00000078  00000+0  16519-3 0  9997
2 50487  87.9236 359.4557 0001727  82.2963 277.8365 13.18685217205621
ONEWEB-0409             
1 50488U 21132V   26047.01793680 -.00000477  00000+0 -13820-2 0  9992
2 50488  87.8835  45.1530 0002287  84.2700 275.8689 13.11417403199700
ONEWEB-0412             
1 50489U 21132W   26046.85379236 -.00000019  00000+0 -80225-4 0  9998
2 50489  87.9237 359.5474 0001587  76.0673 284.0636 13.18684742205663
ONEWEB-0413             
1 50490U 21132X   26047.23812771  .00000086  00000+0  18577-3 0  9991
2 50490  87.9229 359.4769 0001560  80.3966 279.7343 13.18684610205655
ONEWEB-0414             
1 50491U 21132Y   26047.22329133 -.00000017  00000+0 -75514-4 0  9997
2 50491  87.9237 359.4495 0001758  75.8608 284.2719 13.18685669205688
ONEWEB-0417             
1 50492U 21132Z   26046.85213825  .00000046  00000+0  83779-4 0  9998
2 50492  87.9229 359.5529 0002067  76.8192 283.3171 13.18684527205619
ONEWEB-0418             
1 50493U 21132AA  26047.24129989 -.00000066  00000+0 -20113-3 0  9996
2 50493  87.9237 359.4638 0002167  73.5770 286.5600 13.18687549205727
ONEWEB-0419             
1 50494U 21132AB  26047.25957156  .00000009  00000+0 -10644-4 0  9998
2 50494  87.9239 359.4598 0002182  85.8039 274.3342 13.18685084205647
ONEWEB-0420             
1 50495U 21132AC  26046.84554130 -.00000016  00000+0 -73585-4 0  9990
2 50495  87.9238 359.5548 0001750  84.6236 275.5096 13.18684136205588
