[{"OBJECT_NAME":"ONEWEB-0399","OBJECT_ID":"2021-132L","EPOCH":"2026-02-16T00:55:08.182560","MEAN_MOTION":13.11421841,"ECCENTRICITY":0.00020445,"INCLINATION":87.8831,"RA_OF_ASC_NODE":45.1608,"ARG_OF_PERICENTER":71.1133,"MEAN_ANOMALY":289.0217,"EPHEMERIS_TYPE":0,"CLASSIFICATION_TYPE":"U","NORAD_CAT_ID":50479,"ELEMENT_SET_NO":999,"REV_AT_EPOCH":19972,"BSTAR":0.0015169482,"MEAN_MOTION_DOT":5.5e-6,"MEAN_MOTION_DDOT":0},{"OBJECT_NAME":"ONEWEB-0400","OBJECT_ID":"2021-132M","EPOCH":"2026-02-16T06:56:32.607456","MEAN_MOTION":13.18684112,"ECCENTRICITY":0.00019991,"INCLINATION":87.9232,"RA_OF_ASC_NODE":359.4438,"ARG_OF_PERICENTER":84.8159,"MEAN_ANOMALY":275.3201,"EPHEMERIS_TYPE":0,"CLASSIFICATION_TYPE":"U","NORAD_CAT_ID":50480,"ELEMENT_SET_NO":999,"REV_AT_EPOCH":20567,"BSTAR":0.00017467876,"MEAN_MOTION_DOT":8.2e-7,"MEAN_MOTION_DDOT":0},{"OBJECT_NAME":"ONEWEB-0401","OBJECT_ID":"2021-132N","EPOCH":"2026-02-16T06:11:24.387360","MEAN_MOTION":13.18686161,"ECCENTRICITY":0.00016724,"INCLINATION":87.9238,"RA_OF_ASC_NODE":359.4453,"ARG_OF_PERICENTER":80.0637,"MEAN_ANOMALY":280.0683,"EPHEMERIS_TYPE":0,"CLASSIFICATION_TYPE":"U","NORAD_CAT_ID":50481,"ELEMENT_SET_NO":999,"REV_AT_EPOCH":20567,"BSTAR":-8.212851e-6,"MEAN_MOTION_DOT":1.0e-7,"MEAN_MOTION_DDOT":0},{"OBJECT_NAME":"ONEWEB-0402","OBJECT_ID":"2021-132P","EPOCH":"2026-02-16T05:19:09.214752","MEAN_MOTION":13.18684108,"ECCENTRICITY":0.00013131,"INCLINATION":87.9236,"RA_OF_ASC_NODE":359.4443,"ARG_OF_PERICENTER":75.564,"MEAN_ANOMALY":284.5637,"EPHEMERIS_TYPE":0,"CLASSIFICATION_TYPE":"U","NORAD_CAT_ID":50482,"ELEMENT_SET_NO":999,"REV_AT_EPOCH":20569,"BSTAR":-0.00023615966,"MEAN_MOTION_DOT":-8.0e-7,"MEAN_MOTION_DDOT":0},{"OBJECT_NAME":"ONEWEB-0403","OBJECT_ID":"2021-132Q","EPOCH":"2026-02-16T05:54:46.648800","MEAN_MOTION":13.18684383,"ECCENTRICITY":0.00019693,"INCLINATION":87.9236,"RA_OF_ASC_NODE":359.4623,"ARG_OF_PERICENTER":78.7403,"MEAN_ANOMALY":281.3951,"EPHEMERIS_TYPE":0,"CLASSIFICATION_TYPE":"U","NORAD_CAT_ID":50483,"ELEMENT_SET_NO":999,"REV_AT_EPOCH":20565,"BSTAR":0.0001304266,"MEAN_MOTION_DOT":6.4e-7,"MEAN_MOTION_DDOT":0},{"OBJECT_NAME":"ONEWEB-0404","OBJECT_ID":"2021-132R","EPOCH":"2026-02-16T00:28:16.628160","MEAN_MOTION":13.11416886,"ECCENTRICITY":0.00021137,"INCLINATION":87.8823,"RA_OF_ASC_NODE":45.1735,"ARG_OF_PERICENTER":79.0752,"MEAN_ANOMALY":281.0614,"EPHEMERIS_TYPE":0,"CLASSIFICATION_TYPE":"U","NORAD_CAT_ID":50484,"ELEMENT_SET_NO":999,"REV_AT_EPOCH":19981,"BSTAR":-0.0014162326,"MEAN_MOTION_DOT":-4.89e-6,"MEAN_MOTION_DDOT":0},{"OBJECT_NAME":"ONEWEB-0405","OBJECT_ID":"2021-132S","EPOCH":"2026-02-16T06:16:08.898240","MEAN_MOTION":13.1868475,"ECCENTRICITY":0.00016738,"INCLINATION":87.924,"RA_OF_ASC_NODE":359.4432,"ARG_OF_PERICENTER":77.5812,"MEAN_ANOMALY":282.5508,"EPHEMERIS_TYPE":0,"CLASSIFICATION_TYPE":"U","NORAD_CAT_ID":50485,"ELEMENT_SET_NO":999,"REV_AT_EPOCH":20605,"BSTAR":-0.00018644896,"MEAN_MOTION_DOT":-6.1e-7,"MEAN_MOTION_DDOT":0},{"OBJECT_NAME":"ONEWEB-0406","OBJECT_ID":"2021-132T","EPOCH":"2026-02-16T06:01:55.347456","MEAN_MOTION":13.18686488,"ECCENTRICITY":0.00021786,"INCLINATION":87.9235,"RA_OF_ASC_NODE":359.4713,"ARG_OF_PERICENTER":71.0831,"MEAN_ANOMALY":289.0537,"EPHEMERIS_TYPE":0,"CLASSIFICATION_TYPE":"U","NORAD_CAT_ID":50486,"ELEMENT_SET_NO":999,"REV_AT_EPOCH":20568,"BSTAR":-2.648664e-6,"MEAN_MOTION_DOT":1.2e-7,"MEAN_MOTION_DDOT":0},{"OBJECT_NAME":"ONEWEB-0407","OBJECT_ID":"2021-132U","EPOCH":"2026-02-16T05:52:23.892672","MEAN_MOTION":13.18685217,"ECCENTRICITY":0.00017271,"INCLINATION":87.9236,"RA_OF_ASC_NODE":359.4557,"ARG_OF_PERICENTER":82.2963,"MEAN_ANOMALY":277.8365,"EPHEMERIS_TYPE":0,"CLASSIFICATION_TYPE":"U","NORAD_CAT_ID":50487,"ELEMENT_SET_NO":999,"REV_AT_EPOCH":20562,"BSTAR":0.00016518717,"MEAN_MOTION_DOT":7.8e-7,"MEAN_MOTION_DDOT":0},{"OBJECT_NAME":"ONEWEB-0409","OBJECT_ID":"2021-132V","EPOCH":"2026-02-16T00:25:49.739520","MEAN_MOTION":13.11417403,"ECCENTRICITY":0.00022873,"INCLINATION":87.8835,"RA_OF_ASC_NODE":45.153,"ARG_OF_PERICENTER":84.27,"MEAN_ANOMALY":275.8689,"EPHEMERIS_TYPE":0,"CLASSIFICATION_TYPE":"U","NORAD_CAT_ID":50488,"ELEMENT_SET_NO":999,"REV_AT_EPOCH":19970,"BSTAR":-0.0013819609,"MEAN_MOTION_DOT":-4.77e-6,"MEAN_MOTION_DDOT":0},{"OBJECT_NAME":"ONEWEB-0412","OBJECT_ID":"2021-132W","EPOCH":"2026-02-15T20:29:27.659904","MEAN_MOTION":13.18684742,"ECCENTRICITY":0.0001587,"INCLINATION":87.9237,"RA_OF_ASC_NODE":359.5474,"ARG_OF_PERICENTER":76.0673,"MEAN_ANOMALY":284.0636,"EPHEMERIS_TYPE":0,"CLASSIFICATION_TYPE":"U","NORAD_CAT_ID":50489,"ELEMENT_SET_NO":999,"REV_AT_EPOCH":20566,"BSTAR":-8.0225e-5,"MEAN_MOTION_DOT":-1.9e-7,"MEAN_MOTION_DDOT":0},{"OBJECT_NAME":"ONEWEB-0413","OBJECT_ID":"2021-132X","EPOCH":"2026-02-16T05:42:54.234144","MEAN_MOTION":13.1868461,"ECCENTRICITY":0.00015601,"INCLINATION":87.9229,"RA_OF_ASC_NODE":359.4769,"ARG_OF_PERICENTER":80.3966,"MEAN_ANOMALY":279.7343,"EPHEMERIS_TYPE":0,"CLASSIFICATION_TYPE":"U","NORAD_CAT_ID":50490,"ELEMENT_SET_NO":999,"REV_AT_EPOCH":20565,"BSTAR":0.00018577394,"MEAN_MOTION_DOT":8.6e-7,"MEAN_MOTION_DDOT":0},{"OBJECT_NAME":"ONEWEB-0414","OBJECT_ID":"2021-132Y","EPOCH":"2026-02-16T05:21:32.370912","MEAN_MOTION":13.18685669,"ECCENTRICITY":0.00017581,"INCLINATION":87.9237,"RA_OF_ASC_NODE":359.4495,"ARG_OF_PERICENTER":75.8608,"MEAN_ANOMALY":284.2719,"EPHEMERIS_TYPE":0,"CLASSIFICATION_TYPE":"U","NORAD_CAT_ID":50491,"ELEMENT_SET_NO":999,"REV_AT_EPOCH":20568,"BSTAR":-7.5513801e-5,"MEAN_MOTION_DOT":-1.7e-7,"MEAN_MOTION_DDOT":0},{"OBJECT_NAME":"ONEWEB-0417","OBJECT_ID":"2021-132Z","EPOCH":"2026-02-15T20:27:04.744800","MEAN_MOTION":13.18684527,"ECCENTRICITY":0.0002067,"INCLINATION":87.9229,"RA_OF_ASC_NODE":359.5529,"ARG_OF_PERICENTER":76.8192,"MEAN_ANOMALY":283.3171,"EPHEMERIS_TYPE":0,"CLASSIFICATION_TYPE":"U","NORAD_CAT_ID":50492,"ELEMENT_SET_NO":999,"REV_AT_EPOCH":20561,"BSTAR":8.3779e-5,"MEAN_MOTION_DOT":4.6e-7,"MEAN_MOTION_DDOT":0},{"OBJECT_NAME":"ONEWEB-0418","OBJECT_ID":"2021-132AA","EPOCH":"2026-02-16T05:47:28.310496","MEAN_MOTION":13.18687549,"ECCENTRICITY":0.00021677,"INCLINATION":87.9237,"RA_OF_ASC_NODE":359.4638,"ARG_OF_PERICENTER":73.577,"MEAN_ANOMALY":286.56,"EPHEMERIS_TYPE":0,"CLASSIFICATION_TYPE":"U","NORAD_CAT_ID":50493,"ELEMENT_SET_NO":999,"REV_AT_EPOCH":20572,"BSTAR":-0.00020113073,"MEAN_MOTION_DOT":-6.6e-7,"MEAN_MOTION_DDOT":0},{"OBJECT_NAME":"ONEWEB-0419","OBJECT_ID":"2021-132AB","EPOCH":"2026-02-16T06:13:46.982784","MEAN_MOTION":13.18685084,"ECCENTRICITY":0.00021823,"INCLINATION":87.9239,"RA_OF_ASC_NODE":359.4598,"ARG_OF_PERICENTER":85.8039,"MEAN_ANOMALY":274.3342,"EPHEMERIS_TYPE":0,"CLASSIFICATION_TYPE":"U","NORAD_CAT_ID":50494,"ELEMENT_SET_NO":999,"REV_AT_EPOCH":20564,"BSTAR":-1.0643782e-5,"MEAN_MOTION_DOT":9.0e-8,"MEAN_MOTION_DDOT":0},{"OBJECT_NAME":"ONEWEB-0420","OBJECT_ID":"2021-132AC","EPOCH":"2026-02-15T20:17:34.768320","MEAN_MOTION":13.18684136,"ECCENTRICITY":0.000175,"INCLINATION":87.9238,"RA_OF_ASC_NODE":359.5548,"ARG_OF_PERICENTER":84.6236,"MEAN_ANOMALY":275.5096,"EPHEMERIS_TYPE":0,"CLASSIFICATION_TYPE":"U","NORAD_CAT_ID":50495,"ELEMENT_SET_NO":999,"REV_AT_EPOCH":20558,"BSTAR":-7.3585e-5,"MEAN_MOTION_DOT":-1.6e-7,"MEAN_MOTION_DDOT":0}]
